[{"OBJECT_NAME":"MESON-1","OBJECT_ID":"2024-043AK","EPOCH":"2026-03-09T21:36:16.481664","MEAN_MOTION":15.29893494,"ECCENTRICITY":0.00095452,"INCLINATION":97.5469,"RA_OF_ASC_NODE":205.2839,"ARG_OF_PERICENTER":227.1432,"MEAN_ANOMALY":132.9007,"EPHEMERIS_TYPE":0,"CLASSIFICATION_TYPE":"U","NORAD_CAT_ID":59131,"ELEMENT_SET_NO":999,"REV_AT_EPOCH":11189,"BSTAR":0.0002974823,"MEAN_MOTION_DOT":8.544e-5,"MEAN_MOTION_DDOT":0},{"OBJECT_NAME":"STARLINK-34543","OBJECT_ID":"2025-157Y","EPOCH":"2026-03-09T23:30:44.880768","MEAN_MOTION":15.30208791,"ECCENTRICITY":0.00012146,"INCLINATION":53.1597,"RA_OF_ASC_NODE":344.6418,"ARG_OF_PERICENTER":83.3354,"MEAN_ANOMALY":276.7785,"EPHEMERIS_TYPE":0,"CLASSIFICATION_TYPE":"U","NORAD_CAT_ID":64926,"ELEMENT_SET_NO":999,"REV_AT_EPOCH":3611,"BSTAR":0.00071031824,"MEAN_MOTION_DOT":0.00020743,"MEAN_MOTION_DDOT":0}]
